{"type": "FeatureCollection", "features": [ {"type": "Feature", "properties": {"norad_id": 30252, "name": "FENGYUN 1C DEB", "group": "fengyun-1c-debris", "lat": 24.787418742523588, "lon": 178.5317736682687, "alt_km": 874.3845380585417, "timestamp": "2025-12-05T04:52:15.567464+00:00", "meta": {"OBJECT_NAME": "FENGYUN 1C DEB", "OBJECT_ID": "1999-025XM", "EPOCH": "2025-12-04T13:23:11.884416", "MEAN_MOTION": 14.09690079, "ECCENTRICITY": 0.0065742, "INCLINATION": 98.7436, "RA_OF_ASC_NODE": 353.8297, "ARG_OF_PERICENTER": 265.0086, "MEAN_ANOMALY": 218.1084, "EPHEMERIS_TYPE": 0, "CLASSIFICATION_TYPE": "U", "NORAD_CAT_ID": 30252, "ELEMENT_SET_NO": 999, "REV_AT_EPOCH": 96850, "BSTAR": 0.00081838, "MEAN_MOTION_DOT": 1.421e-05, "MEAN_MOTION_DDOT": 0}, "tle": {"line1": "1 30252U 99025XM  25338.55777644  .00001421  00000+0  81838-3 0  9991", "line2": "2 30252  98.7436 353.8297 0065742 265.0086 218.1084 14.09690079968506"}}, "geometry": {"type": "Point", "coordinates": [178.5317736682687, 24.787418742523588]}}, {"type": "Feature", "properties": {"norad_id": 30253, "name": "FENGYUN 1C DEB", "group": "fengyun-1c-debris", "lat": -39.24614781506183, "lon": -119.32818735213708, "alt_km": 1146.2729765966333, "timestamp": "2025-12-05T04:52:15.567473+00:00", "meta": {"OBJECT_NAME": "FENGYUN 1C DEB", "OBJECT_ID": "1999-025XN", "EPOCH": "2025-12-04T05:20:27.399840", "MEAN_MOTION": 13.7313687, "ECCENTRICITY": 0.022216, "INCLINATION": 98.753, "RA_OF_ASC_NODE": 67.0046, "ARG_OF_PERICENTER": 64.01, "MEAN_ANOMALY": 350.8433, "EPHEMERIS_TYPE": 0, "CLASSIFICATION_TYPE": "U", "NORAD_CAT_ID": 30253, "ELEMENT_SET_NO": 999, "REV_AT_EPOCH": 93897, "BSTAR": 0.0033828, "MEAN_MOTION_DOT": 3.701e-05, "MEAN_MOTION_DDOT": 0}, "tle": {"line1": "1 30253U 99025XN  25338.22253935  .00003701  00000+0  33828-2 0  9996", "line2": "2 30253  98.7530  67.0046 0222160  64.0100 350.8433 13.73136870938975"}}, "geometry": {"type": "Point", "coordinates": [-119.32818735213708, -39.24614781506183]}}, {"type": "Feature", "properties": {"norad_id": 30257, "name": "FENGYUN 1C DEB", "group": "fengyun-1c-debris", "lat": 24.557711576683598, "lon": 162.01379330361337, "alt_km": 824.1502762276505, "timestamp": "2025-12-05T04:52:15.567482+00:00", "meta": {"OBJECT_NAME": "FENGYUN 1C DEB", "OBJECT_ID": "1999-025XS", "EPOCH": "2025-12-03T18:54:30.413664", "MEAN_MOTION": 14.0971659, "ECCENTRICITY": 0.00595209, "INCLINATION": 98.7495, "RA_OF_ASC_NODE": 336.6031, "ARG_OF_PERICENTER": 124.2008, "MEAN_ANOMALY": 52.8098, "EPHEMERIS_TYPE": 0, "CLASSIFICATION_TYPE": "U", "NORAD_CAT_ID": 30257, "ELEMENT_SET_NO": 999, "REV_AT_EPOCH": 97091, "BSTAR": 0.00013465053, "MEAN_MOTION_DOT": 1.98e-06, "MEAN_MOTION_DDOT": 0}, "tle": {"line1": "1 30257U 99025XS  25337.78785201  .00000198  00000+0  13465-3 0  9999", "line2": "2 30257  98.7495 336.6031 0059520 124.2008  52.8098 14.09716590970911"}}, "geometry": {"type": "Point", "coordinates": [162.01379330361337, 24.557711576683598]}}, {"type": "Feature", "properties": {"norad_id": 30259, "name": "FENGYUN 1C DEB", "group": "fengyun-1c-debris", "lat": 31.774016386266016, "lon": 16.07262098335326, "alt_km": 855.9569520576624, "timestamp": "2025-12-05T04:52:15.567490+00:00", "meta": {"OBJECT_NAME": "FENGYUN 1C DEB", "OBJECT_ID": "1999-025XU", "EPOCH": "2025-12-04T13:31:57.307008", "MEAN_MOTION": 14.51438933, "ECCENTRICITY": 0.0242299, "INCLINATION": 98.7619, "RA_OF_ASC_NODE": 189.9243, "ARG_OF_PERICENTER": 293.1929, "MEAN_ANOMALY": 118.7063, "EPHEMERIS_TYPE": 0, "CLASSIFICATION_TYPE": "U", "NORAD_CAT_ID": 30259, "ELEMENT_SET_NO": 999, "REV_AT_EPOCH": 99356, "BSTAR": 0.00099462, "MEAN_MOTION_DOT": 5.763e-05, "MEAN_MOTION_DDOT": 0}, "tle": {"line1": "1 30259U 99025XU  25338.56385772  .00005763  00000+0  99462-3 0  9991", "line2": "2 30259  98.7619 189.9243 0242299 293.1929 118.7063 14.51438933993569"}}, "geometry": {"type": "Point", "coordinates": [16.07262098335326, 31.774016386266016]}}, {"type": "Feature", "properties": {"norad_id": 30261, "name": "FENGYUN 1C DEB", "group": "fengyun-1c-debris", "lat": -45.20412520942953, "lon": 30.126652188009174, "alt_km": 153.68664959332182, "timestamp": "2025-12-05T04:52:15.567500+00:00", "meta": {"OBJECT_NAME": "FENGYUN 1C DEB", "OBJECT_ID": "1999-025XW", "EPOCH": "2025-12-04T15:52:20.367840", "MEAN_MOTION": 16.34154794, "ECCENTRICITY": 0.0010855, "INCLINATION": 98.7229, "RA_OF_ASC_NODE": 20.4843, "ARG_OF_PERICENTER": 282.0505, "MEAN_ANOMALY": 77.957, "EPHEMERIS_TYPE": 0, "CLASSIFICATION_TYPE": "U", "NORAD_CAT_ID": 30261, "ELEMENT_SET_NO": 999, "REV_AT_EPOCH": 2243, "BSTAR": 0.0014296, "MEAN_MOTION_DOT": 0.0948271, "MEAN_MOTION_DDOT": 3.3458e-06}, "tle": {"line1": "1 30261U 99025XW  25338.66134685  .09482710  33458-5  14296-2 0  9990", "line2": "2 30261  98.7229  20.4843 0010855 282.0505  77.9570 16.34154794 22433"}}, "geometry": {"type": "Point", "coordinates": [30.126652188009174, -45.20412520942953]}}, {"type": "Feature", "properties": {"norad_id": 30263, "name": "FENGYUN 1C DEB", "group": "fengyun-1c-debris", "lat": -9.720243955797267, "lon": -87.00788500891912, "alt_km": 995.964582590178, "timestamp": "2025-12-05T04:52:15.567509+00:00", "meta": {"OBJECT_NAME": "FENGYUN 1C DEB", "OBJECT_ID": "1999-025XY", "EPOCH": "2025-12-03T07:42:48.343104", "MEAN_MOTION": 14.01429502, "ECCENTRICITY": 0.0144834, "INCLINATION": 98.9351, "RA_OF_ASC_NODE": 92.6939, "ARG_OF_PERICENTER": 26.4644, "MEAN_ANOMALY": 35.3509, "EPHEMERIS_TYPE": 0, "CLASSIFICATION_TYPE": "U", "NORAD_CAT_ID": 30263, "ELEMENT_SET_NO": 999, "REV_AT_EPOCH": 95893, "BSTAR": 0.0012595, "MEAN_MOTION_DOT": 2.04e-05, "MEAN_MOTION_DDOT": 0}, "tle": {"line1": "1 30263U 99025XY  25337.32139286  .00002040  00000+0  12595-2 0  9992", "line2": "2 30263  98.9351  92.6939 0144834  26.4644  35.3509 14.01429502958936"}}, "geometry": {"type": "Point", "coordinates": [-87.00788500891912, -9.720243955797267]}}, {"type": "Feature", "properties": {"norad_id": 30264, "name": "FENGYUN 1C DEB", "group": "fengyun-1c-debris", "lat": -29.7838825161499, "lon": -150.80551530020875, "alt_km": 884.3526906920197, "timestamp": "2025-12-05T04:52:15.567518+00:00", "meta": {"OBJECT_NAME": "FENGYUN 1C DEB", "OBJECT_ID": "1999-025XZ", "EPOCH": "2025-12-02T09:23:25.607904", "MEAN_MOTION": 14.07570969, "ECCENTRICITY": 0.0106501, "INCLINATION": 98.9711, "RA_OF_ASC_NODE": 31.5896, "ARG_OF_PERICENTER": 316.6411, "MEAN_ANOMALY": 54.9037, "EPHEMERIS_TYPE": 0, "CLASSIFICATION_TYPE": "U", "NORAD_CAT_ID": 30264, "ELEMENT_SET_NO": 999, "REV_AT_EPOCH": 96412, "BSTAR": 0.0014704007, "MEAN_MOTION_DOT": 2.568e-05, "MEAN_MOTION_DDOT": 0}, "tle": {"line1": "1 30264U 99025XZ  25336.39126861  .00002568  00000+0  14704-2 0  9993", "line2": "2 30264  98.9711  31.5896 0106501 316.6411  54.9037 14.07570969964127"}}, "geometry": {"type": "Point", "coordinates": [-150.80551530020875, -29.7838825161499]}}, {"type": "Feature", "properties": {"norad_id": 30265, "name": "FENGYUN 1C DEB", "group": "fengyun-1c-debris", "lat": -66.11713422140042, "lon": 108.15281551645776, "alt_km": 711.0200593070831, "timestamp": "2025-12-05T04:52:15.567527+00:00", "meta": {"OBJECT_NAME": "FENGYUN 1C DEB", "OBJECT_ID": "1999-025YA", "EPOCH": "2025-12-02T06:30:17.309088", "MEAN_MOTION": 14.58254763, "ECCENTRICITY": 0.0028484, "INCLINATION": 98.6642, "RA_OF_ASC_NODE": 84.9553, "ARG_OF_PERICENTER": 46.6011, "MEAN_ANOMALY": 342.9342, "EPHEMERIS_TYPE": 0, "CLASSIFICATION_TYPE": "U", "NORAD_CAT_ID": 30265, "ELEMENT_SET_NO": 999, "REV_AT_EPOCH": 98249, "BSTAR": 0.0027427, "MEAN_MOTION_DOT": 0.00012711, "MEAN_MOTION_DDOT": 0}, "tle": {"line1": "1 30265U 99025YA  25336.27103367  .00012711  00000+0  27427-2 0  9994", "line2": "2 30265  98.6642  84.9553 0028484  46.6011 342.9342 14.58254763982495"}}, "geometry": {"type": "Point", "coordinates": [108.15281551645776, -66.11713422140042]}}, {"type": "Feature", "properties": {"norad_id": 30266, "name": "FENGYUN 1C DEB", "group": "fengyun-1c-debris", "lat": 41.87253327130258, "lon": 35.10598376667981, "alt_km": 795.782199995343, "timestamp": "2025-12-05T04:52:15.567536+00:00", "meta": {"OBJECT_NAME": "FENGYUN 1C DEB", "OBJECT_ID": "1999-025YB", "EPOCH": "2025-12-04T15:48:07.146720", "MEAN_MOTION": 14.15022862, "ECCENTRICITY": 0.0083379, "INCLINATION": 99.0434, "RA_OF_ASC_NODE": 42.7618, "ARG_OF_PERICENTER": 88.9352, "MEAN_ANOMALY": 61.932, "EPHEMERIS_TYPE": 0, "CLASSIFICATION_TYPE": "U", "NORAD_CAT_ID": 30266, "ELEMENT_SET_NO": 999, "REV_AT_EPOCH": 96675, "BSTAR": 0.0027758, "MEAN_MOTION_DOT": 5.517e-05, "MEAN_MOTION_DDOT": 0}, "tle": {"line1": "1 30266U 99025YB  25338.65841605  .00005517  00000+0  27758-2 0  9996", "line2": "2 30266  99.0434  42.7618 0083379  88.9352  61.9320 14.15022862966756"}}, "geometry": {"type": "Point", "coordinates": [35.10598376667981, 41.87253327130258]}}, {"type": "Feature", "properties": {"norad_id": 30267, "name": "FENGYUN 1C DEB", "group": "fengyun-1c-debris", "lat": 80.59313941302433, "lon": -19.817619994555894, "alt_km": 848.0102221627249, "timestamp": "2025-12-05T04:52:15.567545+00:00", "meta": {"OBJECT_NAME": "FENGYUN 1C DEB", "OBJECT_ID": "1999-025YC", "EPOCH": "2025-12-04T11:35:32.596224", "MEAN_MOTION": 14.23517879, "ECCENTRICITY": 0.0058448, "INCLINATION": 98.8509, "RA_OF_ASC_NODE": 49.5971, "ARG_OF_PERICENTER": 266.8386, "MEAN_ANOMALY": 92.6103, "EPHEMERIS_TYPE": 0, "CLASSIFICATION_TYPE": "U", "NORAD_CAT_ID": 30267, "ELEMENT_SET_NO": 999, "REV_AT_EPOCH": 97177, "BSTAR": 0.0034783, "MEAN_MOTION_DOT": 8.015e-05, "MEAN_MOTION_DDOT": 0}, "tle": {"line1": "1 30267U 99025YC  25338.48301616  .00008015  00000+0  34783-2 0  9993", "line2": "2 30267  98.8509  49.5971 0058448 266.8386  92.6103 14.23517879971771"}}, "geometry": {"type": "Point", "coordinates": [-19.817619994555894, 80.59313941302433]}}]}